NORAD_CAT_ID,OBJECT_NAME,OBJECT_TYPE,EPOCH,MEAN_MOTION,ECCENTRICITY,INCLINATION,RA_OF_ASC_NODE,ARG_OF_PERICENTER,MEAN_ANOMALY,BSTAR,MEAN_MOTION_DOT,MEAN_MOTION_DDOT,TLE_LINE0,TLE_LINE1,TLE_LINE2,SEMIMAJOR_AXIS,PERIOD,APOGEE,PERIGEE,DECAYED
52352.0,STARLINK-3838,PAYLOAD,2023-09-11 11:31:48,15.08837996,0.0001249,53.2178,325.2092,95.0393,265.0741,5.9786e-05,6.64e-06,0.0,0 STARLINK-3838,1 52352U 22045X   23254.48042144  .00000664  00000-0  59786-4 0  9998,2 52352  53.2178 325.2092 0001249  95.0393 265.0741 15.08837996 78379,6917.887,95.438,540.616,538.887,0.0
52352.0,STARLINK-3838,PAYLOAD,2023-09-12 09:47:11,15.08846936,0.0001319,53.2178,321.0454,98.0726,262.0416,8.8458e-05,1.12e-05,0.0,0 STARLINK-3838,1 52352U 22045X   23255.40777455  .00001120  00000-0  88458-4 0  9997,2 52352  53.2178 321.0454 0001319  98.0726 262.0416 15.08846936 78512,6917.859,95.437,540.637,538.812,0.0
52352.0,STARLINK-3838,PAYLOAD,2023-09-13 11:13:21,15.0885083,0.0001338,53.2175,316.2871,95.621,264.4935,0.00016174,2.288e-05,0.0,0 STARLINK-3838,1 52352U 22045X   23256.46761016  .00002288  00000-0  16174-3 0  9991,2 52352  53.2175 316.2871 0001338  95.6210 264.4935 15.08850830 78677,6917.847,95.437,540.638,538.787,0.0
52352.0,STARLINK-3838,PAYLOAD,2023-09-13 20:45:41,15.08839891,0.0001688,53.2175,314.5031,77.3481,282.77,5.0357e-05,5.13e-06,0.0,0 STARLINK-3838,1 52352U 22045X   23256.86506039  .00000513  00000-0  50357-4 0  9998,2 52352  53.2175 314.5031 0001688  77.3481 282.7700 15.08839891 78735,6917.881,95.438,540.913,538.578,0.0
52352.0,STARLINK-3838,PAYLOAD,2023-09-14 09:28:48,15.08816813,0.0001549,53.2188,312.1259,73.0884,287.0278,-0.00015396,-2.736e-05,0.0,0 STARLINK-3838,1 52352U 22045X   23257.39500621 -.00002736  00000-0 -15396-3 0  9992,2 52352  53.2188 312.1259 0001549  73.0884 287.0278 15.08816813 78817,6917.951,95.439,540.888,538.745,0.0
52352.0,STARLINK-3838,PAYLOAD,2023-09-14 12:39:34,15.08818695,0.0001538,53.2186,311.5312,73.3506,286.7655,-0.00013467,-2.429e-05,0.0,0 STARLINK-3838,1 52352U 22045X   23257.52748609 -.00002429  00000-0 -13467-3 0  9993,2 52352  53.2186 311.5312 0001538  73.3506 286.7655 15.08818695 78837,6917.946,95.439,540.874,538.747,0.0
52352.0,STARLINK-3838,PAYLOAD,2023-09-14 20:36:30,15.08822529,0.0001486,53.2176,310.0435,84.0208,276.0953,-1.9939e-05,-6.05e-06,0.0,0 STARLINK-3838,1 52352U 22045X   23257.85868418 -.00000605  00000-0 -19939-4 0  9995,2 52352  53.2176 310.0435 0001486  84.0208 276.0953 15.08822529 78885,6917.934,95.439,540.827,538.771,0.0
52352.0,STARLINK-3838,PAYLOAD,2023-09-15 02:58:02,15.08830544,0.0001337,53.2171,308.8536,87.9669,272.1477,-4.9295e-05,-1.072e-05,0.0,0 STARLINK-3838,1 52352U 22045X   23258.12364222 -.00001072  00000-0 -49295-4 0  9997,2 52352  53.2171 308.8536 0001337  87.9669 272.1477 15.08830544 78924,6917.909,95.438,540.699,538.849,0.0
52352.0,STARLINK-3838,PAYLOAD,2023-09-15 10:54:58,15.0882991,0.0001424,53.2162,307.3683,77.6387,282.4764,0.00019548,2.824e-05,0.0,0 STARLINK-3838,1 52352U 22045X   23258.45484147  .00002824  00000-0  19548-3 0  9993,2 52352  53.2162 307.3683 0001424  77.6387 282.4764 15.08829910 78974,6917.911,95.438,540.761,538.791,0.0
52352.0,STARLINK-3838,PAYLOAD,2023-09-15 20:27:17,15.08840693,0.0001282,53.216,305.5841,85.5363,274.5775,0.00046744,7.159e-05,0.0,0 STARLINK-3838,1 52352U 22045X   23258.85228143  .00007159  00000-0  46744-3 0  9993,2 52352  53.2160 305.5841 0001282  85.5363 274.5775 15.08840693 79035,6917.878,95.438,540.63,538.856,0.0
52352.0,STARLINK-3838,PAYLOAD,2023-09-16 07:34:58,15.08866151,0.0001487,53.2153,303.5024,74.7976,285.3181,0.0010911,0.00017132,0.0,0 STARLINK-3838,1 52352U 22045X   23259.31595832  .00017132  00000-0  10911-2 0  9995,2 52352  53.2153 303.5024 0001487  74.7976 285.3181 15.08866151 79101,6917.8,95.436,540.694,538.637,0.0
52352.0,STARLINK-3838,PAYLOAD,2023-09-16 10:45:44,15.08867774,0.0001477,53.2153,302.9077,74.6711,285.4444,0.00095414,0.00014941,0.0,0 STARLINK-3838,1 52352U 22045X   23259.44843591  .00014941  00000-0  95414-3 0  9994,2 52352  53.2153 302.9077 0001477  74.6711 285.4444 15.08867774 79124,6917.795,95.436,540.682,538.639,0.0
52352.0,STARLINK-3838,PAYLOAD,2023-09-17 02:39:35,15.08862071,0.0001489,53.2152,299.9341,83.4744,276.6418,0.00042288,6.453e-05,0.0,0 STARLINK-3838,1 52352U 22045X   23260.11082996  .00006453  00000-0  42288-3 0  9994,2 52352  53.2152 299.9341 0001489  83.4744 276.6418 15.08862071 79228,6917.813,95.436,540.708,538.648,0.0
52352.0,STARLINK-3838,PAYLOAD,2023-09-17 09:01:08,15.08864195,0.0001502,53.2152,298.7441,80.0521,280.0641,0.00070009,0.00010879,0.0,0 STARLINK-3838,1 52352U 22045X   23260.37578853  .00010879  00000-0  70009-3 0  9993,2 52352  53.2152 298.7441 0001502  80.0521 280.0641 15.08864195 79268,6917.806,95.436,540.71,538.632,0.0
52352.0,STARLINK-3838,PAYLOAD,2023-09-17 23:19:36,15.08853056,0.0001585,53.2149,296.0686,89.4914,270.626,0.00053889,8.302e-05,0.0,0 STARLINK-3838,1 52352U 22045X   23260.97194753  .00008302  00000-0  53889-3 0  9997,2 52352  53.2149 296.0686 0001585  89.4914 270.6260 15.08853056 79352,6917.84,95.437,540.802,538.609,0.0
52352.0,STARLINK-3838,PAYLOAD,2023-09-18 08:51:55,15.08849283,0.0001559,53.2157,294.2845,79.8258,280.291,1.8968e-05,1.4e-07,0.0,0 STARLINK-3838,1 52352U 22045X   23261.36938775  .00000014  00000-0  18968-4 0  9993,2 52352  53.2157 294.2845 0001559  79.8258 280.2910 15.08849283 79416,6917.852,95.437,540.796,538.639,0.0
52352.0,STARLINK-3838,PAYLOAD,2023-09-19 11:53:27,15.08853625,0.0001525,53.2156,289.2277,91.8228,268.2939,0.00017533,2.504e-05,0.0,0 STARLINK-3838,1 52352U 22045X   23262.49545944  .00002504  00000-0  17533-3 0  9992,2 52352  53.2156 289.2277 0001525  91.8228 268.2939 15.08853625 79582,6917.839,95.437,540.759,538.649,0.0
52352.0,STARLINK-3838,PAYLOAD,2023-09-20 00:36:33,15.08835353,0.0001652,53.2169,286.8475,119.9311,240.1845,-3.7808e-05,-8.9e-06,0.0,0 STARLINK-3838,1 52352U 22045X   23263.02538810 -.00000890  00000-0 -37808-4 0  9992,2 52352  53.2169 286.8475 0001652 119.9311 240.1845 15.08835353 79667,6917.895,95.438,540.902,538.617,0.0
52352.0,STARLINK-3838,PAYLOAD,2023-09-20 06:58:06,15.08835298,0.0001962,53.2152,285.6558,119.1223,240.9966,-1.1538e-05,-4.72e-06,0.0,0 STARLINK-3838,1 52352U 22045X   23263.29034878 -.00000472  00000-0 -11538-4 0  9994,2 52352  53.2152 285.6558 0001962 119.1223 240.9966 15.08835298 79701,6917.895,95.438,541.117,538.402,0.0
52352.0,STARLINK-3838,PAYLOAD,2023-09-21 02:02:44,15.08831348,0.0001536,53.2159,282.0908,98.9461,261.1705,-3.6598e-05,-8.7e-06,0.0,0 STARLINK-3838,1 52352U 22045X   23264.08523602 -.00000870  00000-0 -36598-4 0  9995,2 52352  53.2159 282.0908 0001536  98.9461 261.1705 15.08831348 79824,6917.907,95.438,540.834,538.709,0.0
52352.0,STARLINK-3838,PAYLOAD,2023-09-21 06:48:53,15.08832912,0.0001523,53.2159,281.1985,99.4288,260.6877,7.9602e-06,-1.61e-06,0.0,0 STARLINK-3838,1 52352U 22045X   23264.28395682 -.00000161  00000-0  79602-5 0  9998,2 52352  53.2159 281.1985 0001523  99.4288 260.6877 15.08832912 79853,6917.902,95.438,540.821,538.713,0.0
52352.0,STARLINK-3838,PAYLOAD,2023-09-21 17:56:35,15.08836258,0.0001569,53.2171,279.118,103.4249,256.6918,6.6934e-05,7.77e-06,0.0,0 STARLINK-3838,1 52352U 22045X   23264.74763752  .00000777  00000-0  66934-4 0  9991,2 52352  53.2171 279.1180 0001569 103.4249 256.6918 15.08836258 79920,6917.892,95.438,540.842,538.671,0.0
52352.0,STARLINK-3838,PAYLOAD,2023-09-22 08:15:04,15.08843307,0.0001526,53.2167,276.4414,98.2257,261.8909,0.00029012,4.333e-05,0.0,0 STARLINK-3838,1 52352U 22045X   23265.34379783  .00004333  00000-0  29012-3 0  9992,2 52352  53.2167 276.4414 0001526  98.2257 261.8909 15.08843307 80011,6917.87,95.437,540.791,538.68,0.0
52352.0,STARLINK-3838,PAYLOAD,2023-09-22 19:22:46,15.08845624,0.0001512,53.2159,274.3601,92.0688,268.0478,0.00029733,4.448e-05,0.0,0 STARLINK-3838,1 52352U 22045X   23265.80747757  .00004448  00000-0  29733-3 0  9990,2 52352  53.2159 274.3601 0001512  92.0688 268.0478 15.08845624 80083,6917.863,95.437,540.774,538.682,0.0
52352.0,STARLINK-3838,PAYLOAD,2023-09-23 00:08:55,15.08836281,0.0001488,53.2162,273.4689,96.6675,263.4487,0.00068249,0.00010589,0.0,0 STARLINK-3838,1 52352U 22045X   23266.00620306  .00010589  00000-0  68249-3 0  9991,2 52352  53.2162 273.4689 0001488  96.6675 263.4487 15.08836281 80113,6917.892,95.438,540.786,538.727,0.0
52352.0,STARLINK-3838,PAYLOAD,2023-09-23 08:05:51,15.08845996,0.0001527,53.2159,271.9814,91.4714,268.6453,0.0002207,3.227e-05,0.0,0 STARLINK-3838,1 52352U 22045X   23266.33739705  .00003227  00000-0  22070-3 0  9994,2 52352  53.2159 271.9814 0001527  91.4714 268.6453 15.08845996 80161,6917.862,95.437,540.783,538.671,0.0
52352.0,STARLINK-3838,PAYLOAD,2023-09-24 04:45:52,15.08832833,0.0001503,53.2156,268.1148,89.7289,270.3876,0.00016065,2.269e-05,0.0,0 STARLINK-3838,1 52352U 22045X   23267.19852427  .00002269  00000-0  16065-3 0  9998,2 52352  53.2156 268.1148 0001503  89.7289 270.3876 15.08832833 80296,6917.902,95.438,540.807,538.728,0.0
52352.0,STARLINK-3838,PAYLOAD,2023-09-24 09:32:01,15.08842011,0.0001471,53.2165,267.2218,89.4851,270.631,1.8764e-05,1.1e-07,0.0,0 STARLINK-3838,1 52352U 22045X   23267.39724129  .00000011  00000-0  18764-4 0  9999,2 52352  53.2165 267.2218 0001471  89.4851 270.6310 15.08842011 80329,6917.874,95.437,540.757,538.722,0.0
52352.0,STARLINK-3838,PAYLOAD,2023-09-25 09:22:47,15.08855638,0.0001362,53.2161,262.7602,98.1008,262.0139,0.00013392,1.845e-05,0.0,0 STARLINK-3838,1 52352U 22045X   23268.39082669  .00001845  00000-0  13392-3 0  9993,2 52352  53.2161 262.7602 0001362  98.1008 262.0139 15.08855638 80471,6917.833,95.437,540.64,538.755,0.0
52352.0,STARLINK-3838,PAYLOAD,2023-09-26 02:52:02,15.08846475,0.0001445,53.2144,259.4896,96.0574,264.0583,0.00022824,3.347e-05,0.0,0 STARLINK-3838,1 52352U 22045X   23269.11947240  .00003347  00000-0  22824-3 0  9998,2 52352  53.2144 259.4896 0001445  96.0574 264.0583 15.08846475 80583,6917.861,95.437,540.725,538.726,0.0
